SAUDISAT 1C (SO-50)     
1 27607U 02058C   26095.86393350  .00001625  00000+0  20859-3 0  9996
2 27607  64.5551 352.7248 0075482 275.6576  83.5926 14.82891707253735
SAUDISAT 2              
1 28371U 04025F   26095.56067074  .00000451  00000+0  11176-3 0  9997
2 28371  98.5512  93.6705 0025162 157.2926 202.9390 14.56639359155176
SAUDISAT 3              
1 31118U 07012B   26095.83534954  .00000512  00000+0  90796-4 0  9999
2 31118  98.1391  46.2189 0015972  96.9994 263.3030 14.71379863 17102
PISAT                   
1 41784U 16059B   26095.73408015  .00001687  00000+0  29474-3 0  9995
2 41784  97.8194  99.3062 0030563  77.7400 282.7226 14.68848584509105
FLYING LAPTOP           
1 42831U 17042G   26095.85068088  .00005879  00000+0  46658-3 0  9997
2 42831  97.4368 254.3340 0019681  11.0406 349.1247 15.00714581475609
SALSAT                  
1 46495U 20068K   26095.58020954  .00009877  00000+0  35593-3 0  9997
2 46495  97.8868  94.2870 0009619 186.5581 173.5533 15.28738181304261
